CAS-2T & KS-1Q          
1 41847U 16066G   20218.88610567  .00000071  00000-0  20146-4 0  9992
2 41847  98.6502 269.8882 0366749  81.6794 282.5794 14.38082625196528
NAYIF-1 (EO-88)         
1 42017U 17008BX  20218.84210339  .00001496  00000-0  59836-4 0  9998
2 42017  97.3571 285.6794 0007353 136.6879 223.4939 15.26614455193089
MAX VALIER SAT          
1 42778U 17036P   20218.89282681  .00000848  00000-0  39300-4 0  9991
2 42778  97.3013 271.1532 0011531 200.4268 159.6510 15.22692394173255
RADFXSAT (FOX-1B)       
1 43017U 17073E   20218.71026331  .00000284  00000-0  28106-4 0  9994
2 43017  97.7195 129.0451 0255395 249.7841 107.5744 14.78985481146443
FOX-1D (AO-92)          
1 43137U 18004AC  20218.85431645  .00000935  00000-0  41325-4 0  9996
2 43137  97.4433 289.6767 0007708 236.0941 123.9564 15.24201355142579
DIWATA-2B               
1 43678U 18084H   20218.77928623  .00000356  00000-0  41123-4 0  9995
2 43678  97.8897 337.1953 0010412  22.3730 337.7935 14.91645688 96378
ES'HAIL 2               
1 43700U 18090A   20218.87516675  .00000129  00000-0  00000-0 0  9992
2 43700   0.0132  90.5721 0002059  71.3002 133.8057  1.00273653  6207
FOX-1CLIFF (AO-95)      
1 43770U 18099N   20218.90365608 -.00000026  00000-0  28984-5 0  9993
2 43770  97.7036 289.4167 0015459  37.2114 323.0175 14.95017946 91304
ITASAT 1                
1 43786U 18099AE  20218.48795128  .00000537  00000-0  53769-4 0  9991
2 43786  97.7053 289.4630 0015973  32.6581 327.5624 14.95352808 91265
JY1SAT (JO-97)          
1 43803U 18099AX  20218.16207098  .00000332  00000-0  35091-4 0  9991
2 43803  97.7014 288.9501 0015980  33.8638 326.3600 14.95535713 91211
PSAT2 (NO-104)          
1 44354U 19036R   20218.90085915  .00015282  00000-0  22235-3 0  9994
2 44354  28.5296  55.7116 0361367 119.3140 244.4054 15.04282533 61276
BRICSAT2 (NO-103)       
1 44355U 19036S   20218.59091680  .00031249  00000-0  43225-3 0  9999
2 44355  28.5300  46.3370 0337017 134.5395 228.3241 15.10428081 61330
JAISAT-1                
1 44419U 19038F   20218.70015674  .00000874  00000-0  53259-4 0  9993
2 44419  97.5419 179.7303 0020632 325.0452  34.9423 15.12848549 60045
DUCHIFAT-3              
1 44854U 19089C   20218.91725870  .00000302  00000-0  30806-4 0  9990
2 44854  36.9671 166.0246 0007275 100.5282 259.6337 14.99095209 35723
RS-44 & BREEZE-KM R/B   
1 44909U 19096E   20218.53594088  .00000027  00000-0  55179-4 0  9996
2 44909  82.5242 322.7004 0218487 111.6962 250.7556 12.79707883 28467
ORBITAL FACTORY 2 (OF-2)
1 45113U 19071C   20218.81863063  .00002403  00000-0  84485-4 0  9992
2 45113  51.6431 125.0538 0012407 234.0814 125.9017 15.33497244 28700
HUSKYSAT-1              
1 45119U 19071J   20218.79022457  .00001336  00000-0  51788-4 0  9993
2 45119  51.6437 124.8644 0011731 230.1554 129.8396 15.33702927 28692
